{"type": "FeatureCollection", "features": [ {"type": "Feature", "properties": {"norad_id": 40534, "name": "GPS BIIF-9  (PRN 26)", "group": "gps-ops", "lat": 41.34354133934351, "lon": -9.607302959543059, "alt_km": 20152.69926841805, "timestamp": "2025-12-20T05:41:50.289163+00:00", "meta": {"OBJECT_NAME": "GPS BIIF-9  (PRN 26)", "OBJECT_ID": "2015-013A", "EPOCH": "2025-12-19T01:41:54.527136", "MEAN_MOTION": 2.00562262, "ECCENTRICITY": 0.0107309, "INCLINATION": 53.1969, "RA_OF_ASC_NODE": 211.6279, "ARG_OF_PERICENTER": 38.6346, "MEAN_ANOMALY": 322.2232, "EPHEMERIS_TYPE": 0, "CLASSIFICATION_TYPE": "U", "NORAD_CAT_ID": 40534, "ELEMENT_SET_NO": 999, "REV_AT_EPOCH": 7821, "BSTAR": 0, "MEAN_MOTION_DOT": 8.5e-07, "MEAN_MOTION_DDOT": 0}, "tle": {"line1": "1 40534U 15013A   25353.07076999  .00000085  00000+0  00000+0 0  9992", "line2": "2 40534  53.1969 211.6279 0107309  38.6346 322.2232  2.00562262 78218"}}, "geometry": {"type": "Point", "coordinates": [-9.607302959543059, 41.34354133934351]}}, {"type": "Feature", "properties": {"norad_id": 40730, "name": "GPS BIIF-10 (PRN 08)", "group": "gps-ops", "lat": 4.906491241558549, "lon": -81.98976949265726, "alt_km": 19904.84710148854, "timestamp": "2025-12-20T05:41:50.289174+00:00", "meta": {"OBJECT_NAME": "GPS BIIF-10 (PRN 08)", "OBJECT_ID": "2015-033A", "EPOCH": "2025-12-19T05:34:06.019968", "MEAN_MOTION": 2.00565397, "ECCENTRICITY": 0.01113411, "INCLINATION": 54.125, "RA_OF_ASC_NODE": 274.5058, "ARG_OF_PERICENTER": 26.9648, "MEAN_ANOMALY": 333.641, "EPHEMERIS_TYPE": 0, "CLASSIFICATION_TYPE": "U", "NORAD_CAT_ID": 40730, "ELEMENT_SET_NO": 999, "REV_AT_EPOCH": 7638, "BSTAR": 0, "MEAN_MOTION_DOT": -2.6e-07, "MEAN_MOTION_DDOT": 0}, "tle": {"line1": "1 40730U 15033A   25353.23201412 -.00000026  00000+0  00000+0 0  9996", "line2": "2 40730  54.1250 274.5058 0111341  26.9648 333.6410  2.00565397 76381"}}, "geometry": {"type": "Point", "coordinates": [-81.98976949265726, 4.906491241558549]}}, {"type": "Feature", "properties": {"norad_id": 41019, "name": "GPS BIIF-11 (PRN 10)", "group": "gps-ops", "lat": -29.986360155563098, "lon": 15.58227579660547, "alt_km": 20198.944924747197, "timestamp": "2025-12-20T05:41:50.289185+00:00", "meta": {"OBJECT_NAME": "GPS BIIF-11 (PRN 10)", "OBJECT_ID": "2015-062A", "EPOCH": "2025-12-18T07:03:43.989696", "MEAN_MOTION": 2.00567221, "ECCENTRICITY": 0.0110964, "INCLINATION": 56.8362, "RA_OF_ASC_NODE": 37.7874, "ARG_OF_PERICENTER": 230.0867, "MEAN_ANOMALY": 128.9943, "EPHEMERIS_TYPE": 0, "CLASSIFICATION_TYPE": "U", "NORAD_CAT_ID": 41019, "ELEMENT_SET_NO": 999, "REV_AT_EPOCH": 7420, "BSTAR": 0, "MEAN_MOTION_DOT": -6.9e-07, "MEAN_MOTION_DDOT": 0}, "tle": {"line1": "1 41019U 15062A   25352.29425914 -.00000069  00000+0  00000+0 0  9996", "line2": "2 41019  56.8362  37.7874 0110964 230.0867 128.9943  2.00567221 74204"}}, "geometry": {"type": "Point", "coordinates": [15.58227579660547, -29.986360155563098]}}, {"type": "Feature", "properties": {"norad_id": 41328, "name": "GPS BIIF-12 (PRN 32)", "group": "gps-ops", "lat": -54.77607854836964, "lon": -6.0418868192841835, "alt_km": 19956.259974817414, "timestamp": "2025-12-20T05:41:50.289197+00:00", "meta": {"OBJECT_NAME": "GPS BIIF-12 (PRN 32)", "OBJECT_ID": "2016-007A", "EPOCH": "2025-12-18T21:00:41.238720", "MEAN_MOTION": 2.00560478, "ECCENTRICITY": 0.0092465, "INCLINATION": 55.4095, "RA_OF_ASC_NODE": 96.6135, "ARG_OF_PERICENTER": 243.7229, "MEAN_ANOMALY": 115.3113, "EPHEMERIS_TYPE": 0, "CLASSIFICATION_TYPE": "U", "NORAD_CAT_ID": 41328, "ELEMENT_SET_NO": 999, "REV_AT_EPOCH": 7222, "BSTAR": 0, "MEAN_MOTION_DOT": -3.1e-07, "MEAN_MOTION_DDOT": 0}, "tle": {"line1": "1 41328U 16007A   25352.87547730 -.00000031  00000+0  00000+0 0  9993", "line2": "2 41328  55.4095  96.6135 0092465 243.7229 115.3113  2.00560478 72223"}}, "geometry": {"type": "Point", "coordinates": [-6.0418868192841835, -54.77607854836964]}}, {"type": "Feature", "properties": {"norad_id": 43873, "name": "GPS BIII-1  (PRN 04)", "group": "gps-ops", "lat": 19.10414529976989, "lon": -94.47448016105737, "alt_km": 20102.695265381524, "timestamp": "2025-12-20T05:41:50.289208+00:00", "meta": {"OBJECT_NAME": "GPS BIII-1  (PRN 04)", "OBJECT_ID": "2018-109A", "EPOCH": "2025-12-19T11:24:42.219360", "MEAN_MOTION": 2.00553941, "ECCENTRICITY": 0.003755, "INCLINATION": 55.5704, "RA_OF_ASC_NODE": 99.2813, "ARG_OF_PERICENTER": 195.3177, "MEAN_ANOMALY": 131.4113, "EPHEMERIS_TYPE": 0, "CLASSIFICATION_TYPE": "U", "NORAD_CAT_ID": 43873, "ELEMENT_SET_NO": 999, "REV_AT_EPOCH": 5146, "BSTAR": 0, "MEAN_MOTION_DOT": -2.3e-07, "MEAN_MOTION_DDOT": 0}, "tle": {"line1": "1 43873U 18109A   25353.47548865 -.00000023  00000+0  00000+0 0  9993", "line2": "2 43873  55.5704  99.2813 0037550 195.3177 131.4113  2.00553941 51467"}}, "geometry": {"type": "Point", "coordinates": [-94.47448016105737, 19.10414529976989]}}, {"type": "Feature", "properties": {"norad_id": 44506, "name": "GPS BIII-2  (PRN 18)", "group": "gps-ops", "lat": 41.77358072872504, "lon": 15.777528284667946, "alt_km": 20301.59521924333, "timestamp": "2025-12-20T05:41:50.289246+00:00", "meta": {"OBJECT_NAME": "GPS BIII-2  (PRN 18)", "OBJECT_ID": "2019-056A", "EPOCH": "2025-12-19T09:43:49.309248", "MEAN_MOTION": 2.00566645, "ECCENTRICITY": 0.0057727, "INCLINATION": 55.7191, "RA_OF_ASC_NODE": 338.2882, "ARG_OF_PERICENTER": 198.5275, "MEAN_ANOMALY": 334.872, "EPHEMERIS_TYPE": 0, "CLASSIFICATION_TYPE": "U", "NORAD_CAT_ID": 44506, "ELEMENT_SET_NO": 999, "REV_AT_EPOCH": 4646, "BSTAR": 0, "MEAN_MOTION_DOT": -8.1e-07, "MEAN_MOTION_DDOT": 0}, "tle": {"line1": "1 44506U 19056A   25353.40543182 -.00000081  00000+0  00000+0 0  9993", "line2": "2 44506  55.7191 338.2882 0057727 198.5275 334.8720  2.00566645 46469"}}, "geometry": {"type": "Point", "coordinates": [15.777528284667946, 41.77358072872504]}}, {"type": "Feature", "properties": {"norad_id": 45854, "name": "GPS BIII-3  (PRN 23)", "group": "gps-ops", "lat": -1.4238675366989686, "lon": 34.97363114419859, "alt_km": 20328.120241927743, "timestamp": "2025-12-20T05:41:50.289258+00:00", "meta": {"OBJECT_NAME": "GPS BIII-3  (PRN 23)", "OBJECT_ID": "2020-041A", "EPOCH": "2025-12-19T05:46:39.794304", "MEAN_MOTION": 2.00561972, "ECCENTRICITY": 0.006061, "INCLINATION": 56.5512, "RA_OF_ASC_NODE": 35.9326, "ARG_OF_PERICENTER": 203.6529, "MEAN_ANOMALY": 154.7875, "EPHEMERIS_TYPE": 0, "CLASSIFICATION_TYPE": "U", "NORAD_CAT_ID": 45854, "ELEMENT_SET_NO": 999, "REV_AT_EPOCH": 4042, "BSTAR": 0, "MEAN_MOTION_DOT": -6.4e-07, "MEAN_MOTION_DDOT": 0}, "tle": {"line1": "1 45854U 20041A   25353.24073836 -.00000064  00000+0  00000+0 0  9993", "line2": "2 45854  56.5512  35.9326 0060610 203.6529 154.7875  2.00561972 40429"}}, "geometry": {"type": "Point", "coordinates": [34.97363114419859, -1.4238675366989686]}}, {"type": "Feature", "properties": {"norad_id": 46826, "name": "GPS BIII-4  (PRN 14)", "group": "gps-ops", "lat": -24.050027968937236, "lon": -160.86652272650798, "alt_km": 20286.176053558116, "timestamp": "2025-12-20T05:41:50.289270+00:00", "meta": {"OBJECT_NAME": "GPS BIII-4  (PRN 14)", "OBJECT_ID": "2020-078A", "EPOCH": "2025-12-16T01:06:13.902336", "MEAN_MOTION": 2.00566891, "ECCENTRICITY": 0.0064755, "INCLINATION": 54.0145, "RA_OF_ASC_NODE": 218.2068, "ARG_OF_PERICENTER": 203.3828, "MEAN_ANOMALY": 339.3936, "EPHEMERIS_TYPE": 0, "CLASSIFICATION_TYPE": "U", "NORAD_CAT_ID": 46826, "ELEMENT_SET_NO": 999, "REV_AT_EPOCH": 3783, "BSTAR": 0, "MEAN_MOTION_DOT": 6.7e-07, "MEAN_MOTION_DDOT": 0}, "tle": {"line1": "1 46826U 20078A   25350.04599424  .00000067  00000+0  00000+0 0  9996", "line2": "2 46826  54.0145 218.2068 0064755 203.3828 339.3936  2.00566891 37831"}}, "geometry": {"type": "Point", "coordinates": [-160.86652272650798, -24.050027968937236]}}, {"type": "Feature", "properties": {"norad_id": 48859, "name": "GPS BIII-5  (PRN 11)", "group": "gps-ops", "lat": 21.153207644270587, "lon": 144.06362313785343, "alt_km": 20168.918528743703, "timestamp": "2025-12-20T05:41:50.289282+00:00", "meta": {"OBJECT_NAME": "GPS BIII-5  (PRN 11)", "OBJECT_ID": "2021-054A", "EPOCH": "2025-12-08T04:14:32.423424", "MEAN_MOTION": 2.00553627, "ECCENTRICITY": 0.0024678, "INCLINATION": 55.2581, "RA_OF_ASC_NODE": 340.1367, "ARG_OF_PERICENTER": 233.3994, "MEAN_ANOMALY": 212.8593, "EPHEMERIS_TYPE": 0, "CLASSIFICATION_TYPE": "U", "NORAD_CAT_ID": 48859, "ELEMENT_SET_NO": 999, "REV_AT_EPOCH": 3292, "BSTAR": 0, "MEAN_MOTION_DOT": -8.6e-07, "MEAN_MOTION_DDOT": 0}, "tle": {"line1": "1 48859U 21054A   25342.17676416 -.00000086  00000+0  00000+0 0  9993", "line2": "2 48859  55.2581 340.1367 0024678 233.3994 212.8593  2.00553627 32922"}}, "geometry": {"type": "Point", "coordinates": [144.06362313785343, 21.153207644270587]}}, {"type": "Feature", "properties": {"norad_id": 55268, "name": "GPS BIII-6  (PRN 28)", "group": "gps-ops", "lat": -13.640848275141915, "lon": -14.704986883834252, "alt_km": 20194.50506882652, "timestamp": "2025-12-20T05:41:50.289293+00:00", "meta": {"OBJECT_NAME": "GPS BIII-6  (PRN 28)", "OBJECT_ID": "2023-009A", "EPOCH": "2025-12-17T11:51:56.668896", "MEAN_MOTION": 2.00555417, "ECCENTRICITY": 0.00037978, "INCLINATION": 55.1064, "RA_OF_ASC_NODE": 155.6587, "ARG_OF_PERICENTER": 358.2196, "MEAN_ANOMALY": 17.9493, "EPHEMERIS_TYPE": 0, "CLASSIFICATION_TYPE": "U", "NORAD_CAT_ID": 55268, "ELEMENT_SET_NO": 999, "REV_AT_EPOCH": 2160, "BSTAR": 0, "MEAN_MOTION_DOT": 7.7e-07, "MEAN_MOTION_DDOT": 0}, "tle": {"line1": "1 55268U 23009A   25351.49440589  .00000077  00000+0  00000+0 0  9991", "line2": "2 55268  55.1064 155.6587 0003797 358.2196  17.9493  2.00555417 21607"}}, "geometry": {"type": "Point", "coordinates": [-14.704986883834252, -13.640848275141915]}}]}